[{"OBJECT_NAME":"AC1-003","OBJECT_ID":"2025-276Z","EPOCH":"2026-03-09T17:12:51.689952","MEAN_MOTION":15.17742943,"ECCENTRICITY":0.0003195,"INCLINATION":97.4278,"RA_OF_ASC_NODE":143.9026,"ARG_OF_PERICENTER":29.6743,"MEAN_ANOMALY":330.4672,"EPHEMERIS_TYPE":0,"CLASSIFICATION_TYPE":"U","NORAD_CAT_ID":66689,"ELEMENT_SET_NO":999,"REV_AT_EPOCH":1531,"BSTAR":0.00015796492,"MEAN_MOTION_DOT":3.121e-5,"MEAN_MOTION_DDOT":0},{"OBJECT_NAME":"FENGYUN 1C DEB","OBJECT_ID":"1999-025FBT","EPOCH":"2026-03-07T08:06:46.128096","MEAN_MOTION":15.13951464,"ECCENTRICITY":0.0011424,"INCLINATION":98.245,"RA_OF_ASC_NODE":104.3614,"ARG_OF_PERICENTER":257.8823,"MEAN_ANOMALY":163.5702,"EPHEMERIS_TYPE":0,"CLASSIFICATION_TYPE":"U","NORAD_CAT_ID":47041,"ELEMENT_SET_NO":999,"REV_AT_EPOCH":72466,"BSTAR":0.0033934,"MEAN_MOTION_DOT":0.00062023,"MEAN_MOTION_DDOT":0}]
